{
  "type": "FeatureCollection",
  "features": [
    {
      "type": "Feature",
      "properties": { "id": 1, "kecamatan": "Muara Beliti" },
      "geometry": { "type": "Polygon", "coordinates": [[[103.05, -3.10], [103.15, -3.10], [103.15, -3.20], [103.05, -3.20], [103.05, -3.10]]] }
    },
    {
      "type": "Feature",
      "properties": { "id": 2, "kecamatan": "Tugumulyo" },
      "geometry": { "type": "Polygon", "coordinates": [[[103.15, -3.10], [103.25, -3.10], [103.25, -3.20], [103.15, -3.20], [103.15, -3.10]]] }
    },
    {
      "type": "Feature",
      "properties": { "id": 3, "kecamatan": "BTS Ulu" },
      "geometry": { "type": "Polygon", "coordinates": [[[102.85, -2.95], [102.95, -2.95], [102.95, -3.05], [102.85, -3.05], [102.85, -2.95]]] }
    },
    {
      "type": "Feature",
      "properties": { "id": 4, "kecamatan": "Rawas Ulu" },
      "geometry": { "type": "Polygon", "coordinates": [[[102.70, -2.75], [102.85, -2.75], [102.85, -2.90], [102.70, -2.90], [102.70, -2.75]]] }
    },
    {
      "type": "Feature",
      "properties": { "id": 5, "kecamatan": "Karang Jaya" },
      "geometry": { "type": "Polygon", "coordinates": [[[102.90, -2.80], [103.05, -2.80], [103.05, -2.95], [102.90, -2.95], [102.90, -2.80]]] }
    },
    {
      "type": "Feature",
      "properties": { "id": 6, "kecamatan": "Muara Lakitan" },
      "geometry": { "type": "Polygon", "coordinates": [[[103.05, -2.80], [103.20, -2.80], [103.20, -2.95], [103.05, -2.95], [103.05, -2.80]]] }
    },
    {
      "type": "Feature",
      "properties": { "id": 7, "kecamatan": "Jayaloka" },
      "geometry": { "type": "Polygon", "coordinates": [[[102.95, -3.05], [103.05, -3.05], [103.05, -3.15], [102.95, -3.15], [102.95, -3.05]]] }
    },
    {
      "type": "Feature",
      "properties": { "id": 8, "kecamatan": "Sukakarya" },
      "geometry": { "type": "Polygon", "coordinates": [[[103.20, -3.10], [103.30, -3.10], [103.30, -3.20], [103.20, -3.20], [103.20, -3.10]]] }
    },
    {
      "type": "Feature",
      "properties": { "id": 9, "kecamatan": "Megang Sakti" },
      "geometry": { "type": "Polygon", "coordinates": [[[103.05, -3.20], [103.20, -3.20], [103.20, -3.35], [103.05, -3.35], [103.05, -3.20]]] }
    },
    {
      "type": "Feature",
      "properties": { "id": 10, "kecamatan": "Rawas Ilir" },
      "geometry": { "type": "Polygon", "coordinates": [[[102.70, -2.90], [102.85, -2.90], [102.85, -3.05], [102.70, -3.05], [102.70, -2.90]]] }
    },
    {
      "type": "Feature",
      "properties": { "id": 11, "kecamatan": "Bulang Tengah Suku Ulu" },
      "geometry": { "type": "Polygon", "coordinates": [[[102.55, -2.80], [102.70, -2.80], [102.70, -2.95], [102.55, -2.95], [102.55, -2.80]]] }
    },
    {
      "type": "Feature",
      "properties": { "id": 12, "kecamatan": "STL Ulu Terawas" },
      "geometry": { "type": "Polygon", "coordinates": [[[102.85, -3.05], [102.95, -3.05], [102.95, -3.15], [102.85, -3.15], [102.85, -3.05]]] }
    },
    {
      "type": "Feature",
      "properties": { "id": 13, "kecamatan": "Selangit" },
      "geometry": { "type": "Polygon", "coordinates": [[[103.20, -2.95], [103.35, -2.95], [103.35, -3.10], [103.20, -3.10], [103.20, -2.95]]] }
    },
    {
      "type": "Feature",
      "properties": { "id": 14, "kecamatan": "Tiang Pumpung Kepungut" },
      "geometry": { "type": "Polygon", "coordinates": [[[102.85, -3.15], [102.95, -3.15], [102.95, -3.25], [102.85, -3.25], [102.85, -3.15]]] }
    }
  ]
}
